[{"OBJECT_NAME":"FLOCK 4G-15","OBJECT_ID":"2025-009BX","EPOCH":"2026-03-09T17:13:37.807680","MEAN_MOTION":15.27266411,"ECCENTRICITY":0.00036988,"INCLINATION":97.4054,"RA_OF_ASC_NODE":151.1927,"ARG_OF_PERICENTER":316.8208,"MEAN_ANOMALY":43.274,"EPHEMERIS_TYPE":0,"CLASSIFICATION_TYPE":"U","NORAD_CAT_ID":62678,"ELEMENT_SET_NO":999,"REV_AT_EPOCH":12135,"BSTAR":0.00047574812,"MEAN_MOTION_DOT":0.00012647,"MEAN_MOTION_DDOT":0},{"OBJECT_NAME":"STARLINK-34163","OBJECT_ID":"2025-101Q","EPOCH":"2026-03-09T04:03:05.566752","MEAN_MOTION":15.27598639,"ECCENTRICITY":0.00038207,"INCLINATION":43.0016,"RA_OF_ASC_NODE":1.0719,"ARG_OF_PERICENTER":246.0935,"MEAN_ANOMALY":113.9516,"EPHEMERIS_TYPE":0,"CLASSIFICATION_TYPE":"U","NORAD_CAT_ID":64008,"ELEMENT_SET_NO":999,"REV_AT_EPOCH":4697,"BSTAR":0.0016562028,"MEAN_MOTION_DOT":0.00045628,"MEAN_MOTION_DDOT":0}]
